STARLINK-36580          
1 67546U 26014Q   26048.61796985  .00230302  00000+0  14978-2 0  9992
2 67546  97.2849 292.5592 0001755 125.7807 234.3622 15.75279431  5417
STARLINK-36584          
1 67547U 26014R   26048.83335647 -.00003652  00000+0 -23626-4 0  9991
2 67547  97.2847 292.8265 0001593  90.5264 150.1350 15.75188358  5490
STARLINK-36586          
1 67548U 26014S   26048.78189750  .00108919  00000+0  56125-3 0  9997
2 67548  97.2846 292.7943 0001189  86.7634 273.3770 15.80857094  5446
STARLINK-36564          
1 67549U 26014T   26048.81667450  .00308864  00000+0  19956-2 0  9991
2 67549  97.2836 292.7477 0001689  68.2584 291.8861 15.75213887  5381
STARLINK-36563          
1 67550U 26014U   26048.62185225  .00260852  00000+0  16888-2 0  9992
2 67550  97.2839 292.5526 0001851 124.9254 235.2185 15.75299536  5414
STARLINK-36566          
1 67551U 26014V   26048.61973633  .00237097  00000+0  15414-2 0  9999
2 67551  97.2847 292.5561 0001024  76.7566 283.3813 15.75269512  5407
STARLINK-36567          
1 67552U 26014W   26048.81879066  .00245719  00000+0  15994-2 0  9990
2 67552  97.2840 292.7404 0001529  67.5043 292.6384 15.75217938  5431
STARLINK-36569          
1 67553U 26014X   26048.66561773  .00134368  00000+0  88745-3 0  9999
2 67553  97.2853 292.6439 0001247  44.6870 315.4495 15.75194881  5410
STARLINK-36395          
1 67554U 26014Y   26048.62255864  .00278009  00000+0  17959-2 0  9996
2 67554  97.2852 292.5490 0001851 125.3039 234.8399 15.75303605  5403
STARLINK-36559          
1 67555U 26014Z   26048.62396979  .00200402  00000+0  13085-2 0  9998
2 67555  97.2849 292.5472 0000577 112.9594 247.1732 15.75272539  5401
MR-2                    
1 67556U 26015A   26048.74052509  .00000071  00000+0  88421-4 0  9999
2 67556  88.9965 280.6911 0005060  74.1912 285.9798 13.52686537  3566
MR-1                    
1 67557U 26015B   26048.74100477  .00000072  00000+0  90678-4 0  9996
2 67557  88.9965 280.6914 0005144  72.9802 287.1914 13.52661653  3563
